STARLINK-2526           
1 48378U 21038AB  24097.45380554  .00001356  00000+0  10989-3 0  9994
2 48378  53.0551 264.0739 0001295  89.4230 270.6908 15.06405086161325
STARLINK-2612           
1 48379U 21038AC  24097.45012199  .00001773  00000+0  13783-3 0  9990
2 48379  53.0548 264.0929 0001267  90.8714 269.2420 15.06409439161324
STARLINK-2614           
1 48380U 21038AD  24097.45755896  .00006544  00000+0  45776-3 0  9998
2 48380  53.0533 264.5702 0001352  97.0917 263.0226 15.06406056161310
STARLINK-2630           
1 48381U 21038AE  24097.18104622  .00000570  00000+0  57154-4 0  9991
2 48381  53.0547 265.3023 0001262  92.9252 267.1882 15.06402523161281
STARLINK-2585           
1 48382U 21038AF  24097.17736236  .00001658  00000+0  13013-3 0  9996
2 48382  53.0550 265.3195 0001320  87.3926 272.7214 15.06403939161280
STARLINK-2599           
1 48383U 21038AG  24097.46375798  .00000835  00000+0  11755-4 0  9999
2 48383  53.0551 254.3544 0001482  89.7604 270.3582 15.69715266162681
STARLINK-2601           
1 48384U 21038AH  24097.15640197 -.00006331  00000+0 -47445-4 0  9998
2 48384  53.0532 250.3209 0000808 115.1058 245.0042 15.69704168162716
STARLINK-2598           
1 48385U 21038AJ  24097.43168586  .00000395  00000+0  45404-4 0  9992
2 48385  53.0542 264.1715 0001173  97.6901 262.4221 15.06406506162549
STARLINK-2606           
1 48386U 21038AK  24097.48559230  .00002256  00000+0  17030-3 0  9999
2 48386  53.0540 258.9376 0001292  86.4227 273.6910 15.06399274161395
STARLINK-2600           
1 48387U 21038AL  24097.44874940  .00008942  00000+0  61811-3 0  9998
2 48387  53.0534 259.0695 0001350  95.7210 264.3933 15.06418266161390
STARLINK-2594           
1 48388U 21038AM  24097.44504688  .00002068  00000+0  15765-3 0  9998
2 48388  53.0543 259.1129 0001275  93.8417 266.2718 15.06404733161394
STARLINK-1904           
1 48389U 21038AN  24097.43166706  .00002884  00000+0  21236-3 0  9999
2 48389  53.0535 254.1644 0001071  87.6644 272.4467 15.06409054161458
STARLINK-2586           
1 48390U 21038AP  24097.42893744 -.00000205  00000+0  50970-5 0  9994
2 48390  53.0548 254.1883 0001265  89.7721 270.3413 15.06392408162670
STARLINK-2607           
1 48391U 21038AQ  24097.55792590  .00001928  00000+0  14823-3 0  9993
2 48391  53.0543 253.6089 0001207  86.5054 273.6073 15.06411913162691
STARLINK-2605           
1 48392U 21038AR  24097.42155679  .00004418  00000+0  31532-3 0  9994
2 48392  53.0540 254.2210 0001380  87.1109 273.0038 15.06397280162675
STARLINK-2602           
1 48393U 21038AS  24097.41786744  .00001243  00000+0  10231-3 0  9993
2 48393  53.0555 254.2371 0001338  89.7417 270.3725 15.06405636162671
STARLINK-2573           
1 48394U 21038AT  24097.14879733  .00001572  00000+0  12440-3 0  9994
2 48394  53.0554 255.4454 0001310  92.8985 267.2154 15.06400782162635
STARLINK-2574           
1 48395U 21038AU  24097.45847432  .00001179  00000+0  97986-4 0  9992
2 48395  53.0543 254.6768 0001350  94.7082 265.4061 15.06415030162679
STARLINK-2575           
1 48396U 21038AV  24097.41049736  .00000985  00000+0  85020-4 0  9990
2 48396  53.0544 254.2699 0001256  91.2006 268.9127 15.06401088162672
STARLINK-2590           
1 48397U 21038AW  24097.47315312  .00000177  00000+0  30761-4 0  9998
2 48397  53.0553 253.9903 0001295  96.0789 264.0347 15.06408434162685
STARLINK-2588           
1 48398U 21038AX  24097.40312247  .00002113  00000+0  16067-3 0  9990
2 48398  53.0537 254.3012 0001278  84.6273 275.4862 15.06409769162675
STARLINK-2587           
1 48399U 21038AY  24097.13405210  .00000261  00000+0  36408-4 0  9998
2 48399  53.0539 255.5092 0001225  92.2326 267.8804 15.06401645162626
STARLINK-2576           
1 48400U 21038AZ  24097.39575046 -.00000057  00000+0  15070-4 0  9990
2 48400  53.0541 254.3326 0000977  87.0620 273.0481 15.06401151161453
STARLINK-2571           
1 48401U 21038BA  24097.43260863  .00001276  00000+0  10454-3 0  9997
2 48401  53.0542 254.1773 0001195  92.3353 267.7773 15.06406761161450
STARLINK-2560           
1 48402U 21038BB  24097.44018671  .00004838  00000+0  44736-4 0  9995
2 48402  53.0528 244.7184 0000447  95.7293 264.3775 15.69722584161598
STARLINK-2561           
1 48403U 21038BC  24097.45473348  .00007605  00000+0  52845-3 0  9997
2 48403  53.0535 254.0694 0001203  94.5570 265.5556 15.06429876161468
STARLINK-2593           
1 48404U 21038BD  24097.45103613  .00000394  00000+0  45331-4 0  9994
2 48404  53.0549 254.0875 0001022  92.8436 267.2670 15.06409083161460
STARLINK-2570           
1 48405U 21038BE  24096.71754526  .00001761  00000+0  13709-3 0  9990
2 48405  53.0535 257.3801 0001251  89.6397 270.4735 15.06401705161354
STARLINK-2568           
1 48406U 21038BF  24097.44366793  .00005795  00000+0  40744-3 0  9997
2 48406  53.0533 254.1213 0001357  82.2946 277.8197 15.06416299161460
STARLINK-2595           
1 48407U 21038BG  24097.45998578 -.00000466  00000+0 -12078-4 0  9993
2 48407  53.0555 253.5743 0001245  87.9611 272.1521 15.06982258161465
STARLINK-2592           
1 48408U 21038BH  24097.17090887  .00002020  00000+0  15446-3 0  9996
2 48408  53.0543 255.3421 0001390  91.3004 268.8144 15.06402542161413
STARLINK-2596           
1 48409U 21038BJ  24097.45979242 -.00000603  00000+0 -21616-4 0  9993
2 48409  53.0543 259.0477 0001117  88.3373 271.7744 15.06400640161403
STARLINK-2563           
1 48410U 21038BK  24097.59708247  .00005803  00000+0  40782-3 0  9994
2 48410  53.0538 208.4309 0001220  90.2486 269.8643 15.06428463162122
STARLINK-2505           
1 48411U 21038BL  24097.54778237  .00004001  00000+0  28716-3 0  9998
2 48411  53.0545 203.6563 0001358  99.5130 260.6012 15.06421054162184
STARLINK-2581           
1 48412U 21038BM  24097.56627190  .00015195  00000+0  10355-2 0  9997
2 48412  53.0534 204.0055 0001242  85.7321 274.3810 15.06447226162182
STARLINK-2461           
1 48428U 21040A   24097.30866910  .00002571  00000+0  19135-3 0  9994
2 48428  53.0524  99.7261 0001287  87.6821 272.4315 15.06414709160694
STARLINK-2749           
1 48429U 21040B   24097.61000100  .00000310  00000+0  39710-4 0  9991
2 48429  53.0556  68.3843 0001488  88.7027 271.4132 15.06407366161150
STARLINK-2729           
1 48430U 21040C   24097.13931164  .00020618  00000+0  17447-3 0  9998
2 48430  53.0536  61.5649 0001153 101.2489 258.8657 15.69728426161211
STARLINK-2700           
1 48431U 21040D   24097.32385406  .00001564  00000+0  12389-3 0  9991
2 48431  53.0553  64.6570 0001482  90.0605 270.0554 15.06403447161180
STARLINK-2680           
1 48432U 21040E   24097.17234199  .00000325  00000+0  40713-4 0  9994
2 48432  53.0539  60.7324 0001503  94.1638 265.9522 15.06407799161221
STARLINK-2699           
1 48433U 21040F   24097.31746568  .00004951  00000+0  35097-3 0  9996
2 48433  53.0541  64.9644 0001480  89.0389 271.0770 15.06409366161175
STARLINK-2692           
1 48434U 21040G   24097.61375095  .00000253  00000+0  35911-4 0  9990
2 48434  53.0550  68.8657 0001538  87.1094 273.0071 15.06402283161154
STARLINK-2633           
1 48435U 21040H   24097.35475275  .00002256  00000+0  17035-3 0  9994
2 48435  53.0544  79.5280 0001467  91.0660 269.0497 15.06392029160975
STARLINK-2639           
1 48436U 21040J   24097.41049716  .00001241  00000+0  10218-3 0  9998
2 48436  53.0536  94.2682 0001368  88.0024 272.1122 15.06413576160776
STARLINK-2642           
1 48437U 21040K   24097.32848333  .00000022  00000+0  20340-4 0  9995
2 48437  53.0536 104.6364 0001492  71.2385 288.8766 15.06404306160625
STARLINK-2640           
1 48438U 21040L   24097.36629320  .00001218  00000+0  10059-3 0  9996
2 48438  53.0539  94.7371 0001283  82.5015 277.6120 15.06409034160767
STARLINK-2583           
1 48439U 21040M   24097.27042635  .00001732  00000+0  13511-3 0  9992
2 48439  53.0541  94.8978 0001442  87.1575 272.9579 15.06404136160757
STARLINK-2682           
1 48440U 21040N   24097.26676463  .00009074  00000+0  62747-3 0  9997
2 48440  53.0538  94.9142 0001220  90.9620 269.1508 15.06387127160756
STARLINK-2702           
1 48441U 21040P   24097.26305574  .00004460  00000+0  31798-3 0  9996
2 48441  53.0531  94.9299 0001293  81.8514 278.2622 15.06419542160759
STARLINK-2644           
1 48442U 21040Q   24097.39205993  .00000876  00000+0  77656-4 0  9996
2 48442  53.0551  94.3491 0001435  89.8956 270.2197 15.06405251160779
STARLINK-2663           
1 48443U 21040R   24097.38837364  .00001134  00000+0  94963-4 0  9997
2 48443  53.0547  94.3666 0001428  92.8579 267.2573 15.06409919160775
STARLINK-2645           
1 48444U 21040S   24097.25200619  .00000264  00000+0  36621-4 0  9991
2 48444  53.0540  94.9802 0001323  88.6132 271.5009 15.06395519162032
STARLINK-2634           
1 48445U 21040T   24097.31466276  .00001552  00000+0  12303-3 0  9993
2 48445  53.0540  94.6985 0001259  90.0935 270.0198 15.06402472160766
STARLINK-2247           
1 48446U 21040U   24097.37731767  .00005216  00000+0  36867-3 0  9992
2 48446  53.0536  94.4216 0001593  94.0569 266.0602 15.06416895160775
STARLINK-2269           
1 48447U 21040V   24097.22140050  .00004607  00000+0  42826-4 0  9992
2 48447  53.0526  77.1198 0000894  71.9164 288.1950 15.69728755161008
STARLINK-2632           
1 48448U 21040W   24097.22647771 -.00003405  00000+0 -23256-4 0  9998
2 48448  53.0541  85.4532 0001183  79.6578 280.4572 15.69703932160886
STARLINK-2655           
1 48449U 21040X   24097.36995037  .00001852  00000+0  14316-3 0  9993
2 48449  53.0536  94.4496 0001459  83.7445 276.3710 15.06411904160777
STARLINK-2660           
1 48450U 21040Y   24097.56806841  .00000393  00000+0  45277-4 0  9991
2 48450  53.0539  93.5916 0001375  86.5824 273.5322 15.06399306160801
STARLINK-2652           
1 48451U 21040Z   24097.24197543  .00037680  00000+0  31274-3 0  9999
2 48451  53.0531  85.2141 0001091  76.2182 283.8956 15.69840389160897
